IRIDIUM 144             
1 43249U 18030A   25207.89999061  .00000173  00000+0  54549-4 0  9992
2 43249  86.3925  66.3936 0002062  88.7430 271.4002 14.34219124383517
IRIDIUM 149             
1 43250U 18030B   25207.90633568  .00000086  00000+0  23740-4 0  9995
2 43250  86.3925  66.3617 0002088  89.5263 270.6172 14.34217455383532
IRIDIUM 157             
1 43251U 18030C   25207.64628957  .00000053  00000+0  11849-4 0  9994
2 43251  86.3926  66.5165 0002380  86.9776 273.1692 14.34217914383477
IRIDIUM 140             
1 43252U 18030D   25207.73508481  .00000014  00000+0 -20358-5 0  9998
2 43252  86.3926  66.4927 0001862  87.1039 273.0370 14.34217670383541
IRIDIUM 145             
1 43253U 18030E   25207.65263081  .00000108  00000+0  31599-4 0  9995
2 43253  86.3925  66.4995 0001910  99.4351 260.7060 14.34216418383462
IRIDIUM 146             
1 43254U 18030F   25207.91267750 -.00000015  00000+0 -12384-4 0  9992
2 43254  86.3923  66.4045 0001787  95.3805 264.7594 14.34217428383512
IRIDIUM 148             
1 43255U 18030G   25207.88096521 -.00000052  00000+0 -25788-4 0  9998
2 43255  86.3927  66.4559 0002134  91.2813 268.8627 14.34217672383544
IRIDIUM 142             
1 43256U 18030H   25207.91901950  .00000018  00000+0 -66008-6 0  9997
2 43256  86.3923  66.3407 0001767 100.3886 259.7509 14.34217725383519
